NORAD_CAT_ID,OBJECT_NAME,OBJECT_TYPE,EPOCH,MEAN_MOTION,ECCENTRICITY,INCLINATION,RA_OF_ASC_NODE,ARG_OF_PERICENTER,MEAN_ANOMALY,BSTAR,MEAN_MOTION_DOT,MEAN_MOTION_DDOT,TLE_LINE0,TLE_LINE1,TLE_LINE2,SEMIMAJOR_AXIS,PERIOD,APOGEE,PERIGEE,DECAYED
52703.0,STARLINK-4020,PAYLOAD,2022-07-21 22:00:00,15.73183804,0.0003101,53.2154,338.6847,9.8881,213.1543,0.00039027,0.00054478,0.0,0 STARLINK-4020,1 52703U 22053AZ  22202.91667824  .00054478  00000-0  39027-3 0  9992,2 52703  53.2154 338.6847 0003101   9.8881 213.1543 15.73183804  1300,6727.941,91.534,351.89300000000014,347.72,0.0
52703.0,STARLINK-4020,PAYLOAD,2022-07-22 06:00:00,15.73229635,0.0002917,53.2157,337.0331,12.2642,299.7184,7.2123e-05,9.525e-05,0.0,0 STARLINK-4020,1 52703U 22053AZ  22203.25001157  .00009525  00000-0  72123-4 0  9999,2 52703  53.2157 337.0331 0002917  12.2642 299.7184 15.73229635  1305,6727.811,91.531,351.63800000000015,347.713,0.0
52703.0,STARLINK-4020,PAYLOAD,2022-07-22 12:00:00,15.73235223,0.0003054,53.216,335.7967,15.5484,273.1627,-0.00018169,-0.00026088,0.0,0 STARLINK-4020,1 52703U 22053AZ  22203.50001157 -.00026088  00000-0 -18169-3 0  9991,2 52703  53.2160 335.7967 0003054  15.5484 273.1627 15.73235223 10568,6727.795,91.531,351.714,347.605,0.0
52703.0,STARLINK-4020,PAYLOAD,2022-07-22 22:00:00,15.73221938,0.0003288999999999,53.2158,333.7357,11.0271,118.8929,-0.00021817,-0.00031167,0.0,0 STARLINK-4020,1 52703U 22053AZ  22203.91667824 -.00031167  00000-0 -21817-3 0  9993,2 52703  53.2158 333.7357 0003289  11.0271 118.8929 15.73221938  1301,6727.833000000001,91.532,351.91,347.485,0.0
52703.0,STARLINK-4020,PAYLOAD,2022-07-23 14:00:01,15.73190383,0.0003232,53.2155,330.4365,5.9101,301.8938,-0.00060384,-0.00084515,0.0,0 STARLINK-4020,1 52703U 22053AZ  22204.58335648 -.00084515  00000-0 -60384-3 0  9990,2 52703  53.2155 330.4365 0003232   5.9101 301.8938 15.73190383  1306,6727.9230000000025,91.534,351.962,347.61300000000006,0.0
52703.0,STARLINK-4020,PAYLOAD,2022-07-23 22:00:00,15.73146732,0.0003388,53.2153,328.7852,4.4457,32.1689,0.00022583,0.00031124,0.0,0 STARLINK-4020,1 52703U 22053AZ  22204.91667824  .00031124  00000-0  22583-3 0  9996,2 52703  53.2153 328.7852 0003388   4.4457  32.1689 15.73146732  1301,6728.047,91.536,352.19199999999995,347.6330000000001,0.0
52703.0,STARLINK-4020,PAYLOAD,2022-07-24 04:00:00,15.73159477,0.0003168999999999,53.2154,327.5485,3.9632,9.3445,0.00067745,0.00095391,0.0,0 STARLINK-4020,1 52703U 22053AZ  22205.16667824  .00095391  00000-0  67745-3 0  9999,2 52703  53.2154 327.5485 0003169   3.9632   9.3445 15.73159477 10820,6728.011,91.536,352.0080000000001,347.744,0.0
52703.0,STARLINK-4020,PAYLOAD,2022-07-24 14:00:01,15.73252561,0.0003373,53.2165,325.4851,7.1268,207.2928,-0.00056408,-0.00079252,0.0,0 STARLINK-4020,1 52703U 22053AZ  22205.58334491 -.00079252  00000-0 -56408-3 0  9990,2 52703  53.2165 325.4851 0003373   7.1268 207.2928 15.73252561  1300,6727.745,91.53,351.88,347.341,0.0
52703.0,STARLINK-4020,PAYLOAD,2022-07-24 22:00:00,15.73250545,0.0003197,53.2166,323.8323,7.0601,296.3218,-0.0045296,-0.00594971,0.0,0 STARLINK-4020,1 52703U 22053AZ  22205.91667824 -.00594971  00000-0 -45296-2 0  9998,2 52703  53.2166 323.8323 0003197   7.0601 296.3218 15.73250545 10942,6727.751,91.53,351.767,347.465,0.0
52703.0,STARLINK-4020,PAYLOAD,2022-07-25 06:00:00,15.72887617,0.0003297,53.2174,322.1777,4.4927,27.6323,-0.0084434,-0.0105320999999999,0.0,0 STARLINK-4020,1 52703U 22053AZ  22206.25001157 -.01053210  00000-0 -84434-2 0  9991,2 52703  53.2174 322.1777 0003297   4.4927  27.6323 15.72887617 10991,6728.786,91.551,352.869,348.432,0.0
52703.0,STARLINK-4020,PAYLOAD,2022-07-25 14:00:01,15.72128988,0.0004131,53.2174,320.5311,1.9943,118.2186,-0.008722,-0.0105352,0.0,0 STARLINK-4020,1 52703U 22053AZ  22206.58334491 -.01053520  00000-0 -87220-2 0  9997,2 52703  53.2174 320.5311 0004131   1.9943 118.2186 15.72128988  1303,6730.95,91.596,355.596,350.035,0.0
52703.0,STARLINK-4020,PAYLOAD,2022-07-25 22:00:00,15.71371821,0.0003696,53.2171,318.884,2.4562,204.9335,-0.0090486,-0.01057523,0.0,0 STARLINK-4020,1 52703U 22053AZ  22206.91667824 -.01057523  00000-0 -90486-2 0  9998,2 52703  53.2171 318.8840 0003696   2.4562 204.9335 15.71371821  1309,6733.111999999999,91.64,357.466,352.48900000000015,0.0
52703.0,STARLINK-4020,PAYLOAD,2022-07-26 04:00:01,15.7079918,0.0003831,53.2172,317.6485,356.6707,185.5702,-0.009217,-0.01052038,0.0,0 STARLINK-4020,1 52703U 22053AZ  22207.16668981 -.01052038  00000-0 -92170-2 0  9999,2 52703  53.2172 317.6485 0003831 356.6707 185.5702 15.70799180 11133,6734.749,91.673,359.194,354.034,0.0
52703.0,STARLINK-4020,PAYLOAD,2022-07-26 14:00:01,15.69858443,0.0005974,53.2173,315.5963,315.773,63.2301,-0.0097138,-0.01065533,0.0,0 STARLINK-4020,1 52703U 22053AZ  22207.58334491 -.01065533  00000-0 -97138-2 0  9994,2 52703  53.2173 315.5963 0005974 315.7730  63.2301 15.69858443 11205,6737.439,91.728,363.329,355.279,0.0
52703.0,STARLINK-4020,PAYLOAD,2022-07-26 20:00:01,15.69276274,8.72e-05,53.2172,314.3654,319.9042,32.5184,-0.0097337999999999,-0.01041907,0.0,0 STARLINK-4020,1 52703U 22053AZ  22207.83334491 -.01041907  00000-0 -97338-2 0  9993,2 52703  53.2172 314.3654 0000872 319.9042  32.5184 15.69276274 11240,6739.105,91.762,361.5580000000001,360.383,0.0
52703.0,STARLINK-4020,PAYLOAD,2022-07-26 22:00:00,15.69098984,7.18e-05,53.2173,313.9545,356.3222,107.1213,-0.010038,-0.01063993,0.0,0 STARLINK-4020,1 52703U 22053AZ  22207.91667824 -.01063993  00000-0 -10038-1 0  9991,2 52703  53.2173 313.9545 0000718 356.3222 107.1213 15.69098984  1307,6739.613,91.772,361.962,360.994,0.0
52703.0,STARLINK-4020,PAYLOAD,2022-07-27 14:00:01,15.67572072,0.0001333,53.2175,310.6782,54.4997,215.0858,-0.010549,-0.01051359,0.0,0 STARLINK-4020,1 52703U 22053AZ  22208.58334491 -.01051359  00000-0 -10549-1 0  9996,2 52703  53.2175 310.6782 0001333  54.4997 215.0858 15.67572072 11369,6743.989000000001,91.862,366.753,364.955,0.0
52703.0,STARLINK-4020,PAYLOAD,2022-07-27 22:00:00,15.66813304,0.0001038,53.2173,309.0418,68.7032,282.5837,-0.01089,-0.0105195,0.0,0 STARLINK-4020,1 52703U 22053AZ  22208.91667824 -.01051950  00000-0 -10890-1 0  9998,2 52703  53.2173 309.0418 0001038  68.7032 282.5837 15.66813304  1309,6746.166,91.906,368.731,367.331,0.0
52703.0,STARLINK-4020,PAYLOAD,2022-07-28 06:00:00,15.66051989,0.0001121,53.2174,307.4066,68.5896,3.487,-0.011193,-0.01048641,0.0,0 STARLINK-4020,1 52703U 22053AZ  22209.25001157 -.01048641  00000-0 -11193-1 0  9997,2 52703  53.2174 307.4066 0001121  68.5896   3.4870 15.66051989 11468,6748.352,91.951,370.973,369.46,0.0
52703.0,STARLINK-4020,PAYLOAD,2022-07-28 14:00:01,15.65293425,0.0001465,53.2173,305.7768,51.6673,100.2834,-0.011553,-0.01049693,0.0,0 STARLINK-4020,1 52703U 22053AZ  22209.58334491 -.01049693  00000-0 -11553-1 0  9991,2 52703  53.2173 305.7768 0001465  51.6673 100.2834 15.65293425  1304,6750.531999999997,91.996,373.386,371.408,0.0
52703.0,STARLINK-4020,PAYLOAD,2022-07-28 22:00:00,15.64535414,0.0001329,53.2174,304.1458,55.776,175.1382,-0.011946,-0.01052479,0.0,0 STARLINK-4020,1 52703U 22053AZ  22209.91667824 -.01052479  00000-0 -11946-1 0  9999,2 52703  53.2174 304.1458 0001329  55.7760 175.1382 15.64535414  1300,6752.712,92.04,375.475,373.68,0.0
52703.0,STARLINK-4020,PAYLOAD,2022-07-29 14:00:01,15.63016697,0.0001395,53.2176,300.8919,43.3366,342.7649,-0.012683,-0.01068373,0.0,0 STARLINK-4020,1 52703U 22053AZ  22210.58334491 -.01068373  00000-0 -12683-1 0  9994,2 52703  53.2176 300.8919 0001395  43.3366 342.7649 15.63016697  1309,6757.0859999999975,92.13,379.893,378.008,0.0
52703.0,STARLINK-4020,PAYLOAD,2022-07-29 22:00:00,15.62255513,0.0001262999999999,53.2174,299.2662,56.7695,45.5586,-0.01303,-0.01065447,0.0,0 STARLINK-4020,1 52703U 22053AZ  22210.91667824 -.01065447  00000-0 -13030-1 0  9996,2 52703  53.2174 299.2662 0001263  56.7695  45.5586 15.62255513 11726,6759.28,92.174,381.999,380.292,0.0
52703.0,STARLINK-4020,PAYLOAD,2022-07-30 14:00:01,15.60736137,0.0001465,53.2175,296.0238,50.1782,201.8613,-0.0138039999999999,-0.01064021,0.0,0 STARLINK-4020,1 52703U 22053AZ  22211.58334491 -.01064021  00000-0 -13804-1 0  9997,2 52703  53.2175 296.0238 0001465  50.1782 201.8613 15.60736137  1305,6763.666,92.264,386.522,384.541,0.0
52703.0,STARLINK-4020,PAYLOAD,2022-07-30 20:00:01,15.60167566,0.0001363,53.2172,294.8086,57.2042,160.0365,-0.014144,-0.01066274,0.0,0 STARLINK-4020,1 52703U 22053AZ  22211.83334491 -.01066274  00000-0 -14144-1 0  9995,2 52703  53.2172 294.8086 0001363  57.2042 160.0365 15.60167566 11870,6765.31,92.298,388.097,386.253,0.0
52703.0,STARLINK-4020,PAYLOAD,2022-07-30 22:00:00,15.59978011,0.0001176,53.2174,294.4034,56.408,269.1191,-0.014254,-0.01066648,0.0,0 STARLINK-4020,1 52703U 22053AZ  22211.91667824 -.01066648  00000-0 -14254-1 0  9990,2 52703  53.2174 294.4034 0001176  56.4080 269.1191 15.59978011  1304,6765.858,92.309,388.518,386.927,0.0
52703.0,STARLINK-4020,PAYLOAD,2022-07-31 14:00:01,15.58457201,0.0001633,53.2175,291.1721,40.6586,69.1043,-0.015043,-0.01062581,0.0,0 STARLINK-4020,1 52703U 22053AZ  22212.58334491 -.01062581  00000-0 -15043-1 0  9994,2 52703  53.2175 291.1721 0001633  40.6586  69.1043 15.58457201 11987,6770.259,92.399,393.229,391.018,0.0
52703.0,STARLINK-4020,PAYLOAD,2022-07-31 22:00:00,15.57699081,0.0001399,53.2175,289.557,55.2988,125.2139,-0.0155229999999999,-0.01065084,0.0,0 STARLINK-4020,1 52703U 22053AZ  22212.91667824 -.01065084  00000-0 -15523-1 0  9994,2 52703  53.2175 289.5570 0001399  55.2988 125.2139 15.57699081  1305,6772.455,92.444,395.268,393.37300000000016,0.0
52703.0,STARLINK-4020,PAYLOAD,2022-08-01 14:00:01,15.56179527,0.0001412,53.2177,286.3368,45.2563,274.0158,-0.01641,-0.01063583,0.0,0 STARLINK-4020,1 52703U 22053AZ  22213.58334491 -.01063583  00000-0 -16410-1 0  9997,2 52703  53.2177 286.3368 0001412  45.2563 274.0158 15.56179527 12146,6776.863,92.534,399.685,397.771,0.0
